[{"OBJECT_NAME":"QIANFAN-42","OBJECT_ID":"2024-232G","EPOCH":"2026-03-09T22:42:14.938272","MEAN_MOTION":14.24534558,"ECCENTRICITY":0.00157446,"INCLINATION":89.0062,"RA_OF_ASC_NODE":27.3953,"ARG_OF_PERICENTER":150.7833,"MEAN_ANOMALY":209.4243,"EPHEMERIS_TYPE":0,"CLASSIFICATION_TYPE":"U","NORAD_CAT_ID":62243,"ELEMENT_SET_NO":999,"REV_AT_EPOCH":11378,"BSTAR":0.00021743398,"MEAN_MOTION_DOT":5.19e-6,"MEAN_MOTION_DDOT":0},{"OBJECT_NAME":"NOAA 16 DEB","OBJECT_ID":"2000-055PZ","EPOCH":"2026-03-09T07:23:12.382080","MEAN_MOTION":14.28035488,"ECCENTRICITY":0.00179796,"INCLINATION":98.9602,"RA_OF_ASC_NODE":194.3611,"ARG_OF_PERICENTER":157.6202,"MEAN_ANOMALY":202.5766,"EPHEMERIS_TYPE":0,"CLASSIFICATION_TYPE":"U","NORAD_CAT_ID":42333,"ELEMENT_SET_NO":999,"REV_AT_EPOCH":51574,"BSTAR":0.0023952038,"MEAN_MOTION_DOT":5.914e-5,"MEAN_MOTION_DDOT":0}]
